SPAWAR-CAL-O            
1 43766U 18099J   26068.73975788  .00021069  00000+0  69663-3 0  9999
2 43766  97.4452 132.0993 0007239 285.0670  74.9770 15.31356755398280
STARLINK-30833          
1 58152U 23166C   26068.67965591  .00000471  00000+0  28028-4 0  9994
2 58152  53.1607 219.9375 0001325  77.1905 282.9244 15.30188000133173
